AMOS-17                 
1 44479U 19050A   26063.16034104  .00000096  00000+0  00000+0 0  9992
2 44479   0.0481 289.9575 0001461  48.0592 258.5848  1.00270942 24133
